ONEWEB-0697             
1 61603U 24188K   24315.51425494 -.00010990  00000+0 -13676-2 0  9993
2 61603  86.5726 161.3640 0003259 126.1525 234.0000 14.82767581  6121
ONEWEB-0698             
1 61604U 24188L   24315.83815584  .00005930  00000+0  72848-3 0  9995
2 61604  86.5802 161.2119 0006411 132.3822 227.7945 14.82889354  4206
ONEWEB-0699             
1 61605U 24188M   24315.85607422  .00007373  00000+0  91419-3 0  9996
2 61605  86.5763 161.2328 0002180 139.2826 220.8560 14.82552346  4300
ONEWEB-0700             
1 61606U 24188N   24315.51206950  .00006112  00000+0  75257-3 0  9993
2 61606  86.5741 161.3633 0003179 122.1842 237.9690 14.82815616  6122
ONEWEB-0701             
1 61607U 24188P   24315.84359836  .00004147  00000+0  50862-3 0  9993
2 61607  86.5793 161.2239 0005219 125.2354 234.9358 14.82895652  4494
ONEWEB-0702             
1 61608U 24188Q   24315.84000110  .00005978  00000+0  74004-3 0  9999
2 61608  86.5823 161.2141 0006437 132.2512 227.9258 14.82571101  4253
ONEWEB-0704             
1 61609U 24188R   24315.85574112  .00000846  00000+0  10241-3 0  9991
2 61609  86.5786 161.2355 0002275 136.5502 223.5900 14.82400520  4310
ONEWEB-0705             
1 61610U 24188S   24315.84290705  .00005765  00000+0  70739-3 0  9998
2 61610  86.5798 161.2249 0005445 124.0746 236.0995 14.82944170  4442
ONEWEB-0706             
1 61611U 24188T   24315.84036165  .00078782  00000+0  95655-2 0  9999
2 61611  86.5816 161.2223 0018824 110.8566 249.4675 14.83007324  4270
ONEWEB-0707             
1 61612U 24188U   24315.85229432  .00005957  00000+0  73317-3 0  9998
2 61612  86.5772 161.2332 0003027 131.8949 228.2533 14.82826454  4214
ONEWEB-0708             
1 61613U 24188V   24315.51056689  .00006096  00000+0  74952-3 0  9995
2 61613  86.5758 161.3662 0003808 124.9066 235.2515 14.82871838  4399
2024-189A               
1 61614U 24189A   24314.98463812  .00018164  00000+0  14136-2 0  9993
2 61614  97.6315 339.5793 0009826 194.8470 165.2468 15.01265162  2843
2024-189B               
1 61615U 24189B   24314.98507958  .00011788  00000+0  92389-3 0  9996
2 61615  97.6312 339.5783 0010852 210.2222 149.8378 15.01088591  2813
2024-189C               
1 61616U 24189C   24314.98470253  .00011783  00000+0  92310-3 0  9993
2 61616  97.6303 339.5762 0010198 245.5407 114.4754 15.01111578  2818
2024-190A               
1 61617U 24190A   24315.24912006  .00035635  00000+0  14669-2 0  9995
2 61617  34.9909 270.4588 0004120  95.7155 264.4030 15.23147447  2784
2024-190B               
1 61618U 24190B   24315.84010358  .00033218  00000+0  13654-2 0  9999
2 61618  34.9882 266.7554 0004289 131.3165 228.7919 15.23210248  2879
2024-190C               
1 61619U 24190C   24315.64276329  .00010726  00000+0  44298-3 0  9998
2 61619  34.9975 267.9924 0005954  97.2372 262.9020 15.23224227  2805
CZ-2C R/B               
1 61620U 24190D   24315.86688463  .01099432  11106-5  11749-2 0  9991
2 61620  35.0038 256.1387 0128695 210.3398 148.9841 15.94305932  2902
STARLINK-32302          
1 61621U 24191A   24315.83334491 -.01389464  00000+0 -16291-1 0  9999
2 61621  43.0005  26.9575 0001384 287.3524 203.2249 15.63359177  4060
STARLINK-32364          
1 61622U 24191B   24315.58334491 -.01313231  00000+0 -15163-1 0  9998
2 61622  43.0003  28.4398 0001498 290.4888 234.9061 15.64049859  3980
STARLINK-32331          
1 61623U 24191C   24315.58334491 -.01315969  00000+0 -15200-1 0  9991
2 61623  43.0004  28.4453 0001125 287.4052 236.0736 15.64051044  3936
STARLINK-32398          
1 61624U 24191D   24315.58334491 -.01309151  00000+0 -15112-1 0  9990
2 61624  43.0002  28.4351 0001508 291.0360 236.2773 15.64046646  3991
STARLINK-32365          
1 61625U 24191E   24315.58334491 -.01307200  00000+0 -15088-1 0  9996
2 61625  43.0004  28.4300 0001419 292.6981 236.5327 15.64045408  4045
STARLINK-32333          
1 61626U 24191F   24315.58334491 -.01314885  00000+0 -15186-1 0  9993
2 61626  43.0003  28.4157 0001141 291.8084 243.1713 15.64050776  3981
STARLINK-32399          
1 61627U 24191G   24315.58334491 -.01310542  00000+0 -15129-1 0  9997
2 61627  43.0004  28.4253 0001544 291.5183 239.6280 15.64047980  3931
STARLINK-32421          
1 61628U 24191H   24315.58334491 -.01309866  00000+0 -15121-1 0  9997
2 61628  43.0003  28.4202 0001490 290.8791 242.1847 15.64047264  3991
STARLINK-32403          
1 61629U 24191J   24315.58334491 -.01310328  00000+0 -15127-1 0  9999
2 61629  43.0004  28.4105 0001446 290.8856 246.0119 15.64047693  3988
STARLINK-32390          
1 61630U 24191K   24315.58334491 -.01310809  00000+0 -15133-1 0  9992
2 61630  43.0004  28.4059 0001422 291.4475 247.3661 15.64048302  3935
STARLINK-32348          
1 61631U 24191L   24315.58334491 -.01312981  00000+0 -15162-1 0  9998
2 61631  43.0003  28.4004 0001172 293.4216 247.3095 15.64049323  3982
STARLINK-32455          
1 61632U 24191M   24315.58334491 -.01315788  00000+0 -15197-1 0  9995
2 61632  43.0004  28.3958 0001199 290.9816 251.6655 15.64051394  3990
STARLINK-32396          
1 61633U 24191N   24315.58334491 -.01315303  00000+0 -15191-1 0  9993
2 61633  43.0004  28.3906 0001198 288.6907 255.8739 15.64050920  3991
STARLINK-32355          
1 61634U 24191P   24315.58334491 -.01315570  00000+0 -15195-1 0  9994
2 61634  43.0002  28.3852 0001075 290.5200 255.9611 15.64051205  3988
STARLINK-32370          
1 61635U 24191Q   24315.58334491 -.01315437  00000+0 -15193-1 0  9995
2 61635  43.0004  28.3808 0001122 291.8584 256.5394 15.64051224  3980
STARLINK-32405          
1 61636U 24191R   24315.58334491 -.01310488  00000+0 -15130-1 0  9998
2 61636  43.0002  28.3753 0001307 286.2967 264.0201 15.64047495  3982
STARLINK-32419          
1 61637U 24191S   24315.58334491 -.01310892  00000+0 -15134-1 0  9992
2 61637  43.0003  28.3708 0001440 291.2840 260.9481 15.64048258  3992
STARLINK-32320          
1 61638U 24191T   24315.58334491 -.01314268  00000+0 -15179-1 0  9993
2 61638  43.0001  28.3657 0001036 289.4742 264.6752 15.64050097  4048
STARLINK-32341          
1 61639U 24191U   24315.58334491 -.01307753  00000+0 -15095-1 0  9992
2 61639  43.0001  28.3610 0001412 289.0395 267.0280 15.64045754  3985
STARLINK-32339          
1 61640U 24191V   24315.58334491 -.01315864  00000+0 -15198-1 0  9990
2 61640  43.0001  28.3510 0001190 289.5798 270.3195 15.64051469  3994
STARLINK-32327          
1 61641U 24191W   24315.58334491 -.01309715  00000+0 -15120-1 0  9994
2 61641  43.0001  28.3560 0001319 290.7438 267.2397 15.64047347  3986
STARLINK-32264          
1 61642U 24191X   24315.58334491 -.01313230  00000+0 -15166-1 0  9992
2 61642  43.0001  28.3418 0001044 286.8500 276.8845 15.64049263  3983
STARLINK-32337          
1 61643U 24191Y   24315.58334491 -.01309285  00000+0 -15114-1 0  9991
2 61643  43.0002  28.3466 0001432 285.8978 275.9200 15.64046961  4042
STARLINK-32238          
1 61661U 24193A   24315.83334491 -.01464755  00000+0 -15579-1 0  9990
2 61661  53.1593 184.7747 0000992  79.8843  59.2822 15.66165010  3489
STARLINK-32310          
1 61662U 24193B   24315.83334491 -.01463815  00000+0 -15568-1 0  9995
2 61662  53.1593 184.7708 0001039  72.0534  69.0291 15.66164387  3599
STARLINK-32308          
1 61663U 24193C   24315.83334491 -.01462781  00000+0 -15557-1 0  9995
2 61663  53.1593 184.7674 0000921  91.5832  51.4171 15.66163445  3482
STARLINK-32301          
1 61664U 24193D   24315.83334491 -.01462934  00000+0 -15558-1 0  9997
2 61664  53.1593 184.7585 0001039  79.6336  67.1989 15.66163687  3480
STARLINK-32439          
1 61665U 24193E   24315.83334491 -.01462865  00000+0 -15557-1 0  9990
2 61665  53.1593 184.7627 0001080  74.5170  70.3989 15.66163616  3538
STARLINK-32428          
1 61666U 24193F   24315.83334491 -.01463520  00000+0 -15566-1 0  9990
2 61666  53.1594 184.7550 0000810  88.5333  60.2160 15.66164015  3589
STARLINK-32414          
1 61667U 24193G   24315.83334491 -.01462475  00000+0 -15552-1 0  9994
2 61667  53.1593 184.7506 0001182  77.4930  73.1728 15.66163288  3587
STARLINK-32441          
1 61668U 24193H   24315.83334491 -.01462757  00000+0 -15554-1 0  9990
2 61668  53.1595 184.7468 0001341  98.7798  53.8015 15.66163966  3534
STARLINK-32400          
1 61669U 24193J   24315.83334491 -.01462763  00000+0 -15556-1 0  9990
2 61669  53.1593 184.7424 0001043  78.0809  76.4175 15.66163618  3585
STARLINK-32449          
1 61670U 24193K   24315.83334491 -.01462587  00000+0 -15554-1 0  9994
2 61670  53.1594 184.7391 0001037  80.2457  76.1692 15.66163537  3534
STARLINK-32453          
1 61671U 24193L   24315.83334491 -.01462131  00000+0 -15549-1 0  9994
2 61671  53.1593 184.7359 0000992  96.2691  62.0630 15.66163292  3538
STARLINK-32443          
1 61672U 24193M   24315.83334491 -.01461787  00000+0 -15546-1 0  9998
2 61672  53.1594 184.7318 0000870  78.8351  81.4137 15.66162665  3539
STARLINK-32417          
1 61673U 24193N   24315.83334491 -.01462054  00000+0 -15549-1 0  9990
2 61673  53.1594 184.7281 0000863  86.8375  75.3277 15.66162984  3582
STARLINK-32326          
1 61674U 24193P   24315.83334491 -.01462124  00000+0 -15549-1 0  9999
2 61674  53.1593 184.7233 0001005  92.0963  71.9855 15.66163042  3489
STARLINK-32294          
1 61675U 24193Q   24315.83334491 -.01461369  00000+0 -15541-1 0  9992
2 61675  53.1593 184.7193 0000919  82.7257  83.2729 15.66162317  3581
STARLINK-32309          
1 61676U 24193R   24315.83334491 -.01461449  00000+0 -15542-1 0  9993
2 61676  53.1593 184.7124 0000892  84.9513  84.8802 15.66162462  3484
STARLINK-32323          
1 61677U 24193S   24315.83334491 -.01462582  00000+0 -15555-1 0  9997
2 61677  53.1594 184.7159 0000844  90.4805  77.4339 15.66163540  3488
